{
  "type": "FeatureCollection",
  "features": [
    {
      "type": "Feature",
      "properties": {
        "norad_id": 29954,
        "name": "FENGYUN 1C DEB",
        "group": "fengyun-1c-debris",
        "lat": -13.611051593273203,
        "lon": 41.443792049648245,
        "alt_km": 800.7281238616042,
        "timestamp": "2025-12-24T18:55:56.341017+00:00",
        "meta_object_name": "FENGYUN 1C DEB",
        "meta_object_id": "1999-025KC",
        "meta_epoch": "2025-12-24T02:15:17.250624",
        "meta_mean_motion": 14.34281224,
        "meta_eccentricity": 0.00747125,
        "meta_inclination": 100.1493,
        "meta_ra_of_asc_node": 38.1433,
        "meta_arg_of_pericenter": 237.2442,
        "meta_mean_anomaly": 122.1522,
        "meta_ephemeris_type": 0,
        "meta_classification_type": "U",
        "meta_norad_cat_id": 29954,
        "meta_element_set_no": 999,
        "meta_rev_at_epoch": 98350,
        "meta_bstar": 0.00081985504,
        "meta_mean_motion_dot": 2.317e-05,
        "meta_mean_motion_ddot": 0,
        "tle_line1": "1 29954U 99025KC  25358.09394966  .00002317  00000+0  81986-3 0  9990",
        "tle_line2": "2 29954 100.1493  38.1433 0074712 237.2442 122.1522 14.34281224983507"
      },
      "geometry": {
        "type": "Point",
        "coordinates": [
          41.443792049648245,
          -13.611051593273203
        ]
      }
    },
    {
      "type": "Feature",
      "properties": {
        "norad_id": 29955,
        "name": "FENGYUN 1C DEB",
        "group": "fengyun-1c-debris",
        "lat": -69.73172329551078,
        "lon": -125.8461476129664,
        "alt_km": 766.4696359062173,
        "timestamp": "2025-12-24T18:55:56.341027+00:00",
        "meta_object_name": "FENGYUN 1C DEB",
        "meta_object_id": "1999-025KD",
        "meta_epoch": "2025-12-24T04:32:48.301152",
        "meta_mean_motion": 14.38335522,
        "meta_eccentricity": 0.00082863,
        "meta_inclination": 99.2726,
        "meta_ra_of_asc_node": 79.7644,
        "meta_arg_of_pericenter": 216.9083,
        "meta_mean_anomaly": 172.9467,
        "meta_ephemeris_type": 0,
        "meta_classification_type": "U",
        "meta_norad_cat_id": 29955,
        "meta_element_set_no": 999,
        "meta_rev_at_epoch": 98226,
        "meta_bstar": 0.0015338334,
        "meta_mean_motion_dot": 4.625e-05,
        "meta_mean_motion_ddot": 0,
        "tle_line1": "1 29955U 99025KD  25358.18944793  .00004625  00000+0  15338-2 0  9991",
        "tle_line2": "2 29955  99.2726  79.7644 0008286 216.9083 172.9467 14.38335522982266"
      },
      "geometry": {
        "type": "Point",
        "coordinates": [
          -125.8461476129664,
          -69.73172329551078
        ]
      }
    },
    {
      "type": "Feature",
      "properties": {
        "norad_id": 29956,
        "name": "FENGYUN 1C DEB",
        "group": "fengyun-1c-debris",
        "lat": 3.472020167959492,
        "lon": 26.754600094075457,
        "alt_km": 838.6652424009471,
        "timestamp": "2025-12-24T18:55:56.341038+00:00",
        "meta_object_name": "FENGYUN 1C DEB",
        "meta_object_id": "1999-025KE",
        "meta_epoch": "2025-12-24T01:55:12.152064",
        "meta_mean_motion": 14.06174045,
        "meta_eccentricity": 0.00531486,
        "meta_inclination": 98.7905,
        "meta_ra_of_asc_node": 26.6044,
        "meta_arg_of_pericenter": 345.6799,
        "meta_mean_anomaly": 31.4006,
        "meta_ephemeris_type": 0,
        "meta_classification_type": "U",
        "meta_norad_cat_id": 29956,
        "meta_element_set_no": 999,
        "meta_rev_at_epoch": 97209,
        "meta_bstar": 0.00013582085,
        "meta_mean_motion_dot": 1.83e-06,
        "meta_mean_motion_ddot": 0,
        "tle_line1": "1 29956U 99025KE  25358.08000176  .00000183  00000+0  13582-3 0  9994",
        "tle_line2": "2 29956  98.7905  26.6044 0053148 345.6799  31.4006 14.06174045972090"
      },
      "geometry": {
        "type": "Point",
        "coordinates": [
          26.754600094075457,
          3.472020167959492
        ]
      }
    },
    {
      "type": "Feature",
      "properties": {
        "norad_id": 29957,
        "name": "FENGYUN 1C DEB",
        "group": "fengyun-1c-debris",
        "lat": -32.49409951808471,
        "lon": -59.25429295736383,
        "alt_km": 717.6821886505622,
        "timestamp": "2025-12-24T18:55:56.341048+00:00",
        "meta_object_name": "FENGYUN 1C DEB",
        "meta_object_id": "1999-025KF",
        "meta_epoch": "2025-12-24T06:40:05.958336",
        "meta_mean_motion": 14.51494191,
        "meta_eccentricity": 0.00366657,
        "meta_inclination": 98.9209,
        "meta_ra_of_asc_node": 125.9454,
        "meta_arg_of_pericenter": 144.65,
        "meta_mean_anomaly": 279.1471,
        "meta_ephemeris_type": 0,
        "meta_classification_type": "U",
        "meta_norad_cat_id": 29957,
        "meta_element_set_no": 999,
        "meta_rev_at_epoch": 97659,
        "meta_bstar": 0.0047246157,
        "meta_mean_motion_dot": 0.00019048,
        "meta_mean_motion_ddot": 0,
        "tle_line1": "1 29957U 99025KF  25358.27784674  .00019048  00000+0  47246-2 0  9991",
        "tle_line2": "2 29957  98.9209 125.9454 0036665 144.6500 279.1471 14.51494191976593"
      },
      "geometry": {
        "type": "Point",
        "coordinates": [
          -59.25429295736383,
          -32.49409951808471
        ]
      }
    },
    {
      "type": "Feature",
      "properties": {
        "norad_id": 29958,
        "name": "FENGYUN 1C DEB",
        "group": "fengyun-1c-debris",
        "lat": -30.28562827850213,
        "lon": 17.9128548896672,
        "alt_km": 816.5938670577543,
        "timestamp": "2025-12-24T18:55:56.341058+00:00",
        "meta_object_name": "FENGYUN 1C DEB",
        "meta_object_id": "1999-025KG",
        "meta_epoch": "2025-12-24T00:24:04.747104",
        "meta_mean_motion": 14.14471242,
        "meta_eccentricity": 0.00539292,
        "meta_inclination": 98.6679,
        "meta_ra_of_asc_node": 12.0523,
        "meta_arg_of_pericenter": 300.5662,
        "meta_mean_anomaly": 59.0197,
        "meta_ephemeris_type": 0,
        "meta_classification_type": "U",
        "meta_norad_cat_id": 29958,
        "meta_element_set_no": 999,
        "meta_rev_at_epoch": 97610,
        "meta_bstar": 0.00031472133,
        "meta_mean_motion_dot": 5.68e-06,
        "meta_mean_motion_ddot": 0,
        "tle_line1": "1 29958U 99025KG  25358.01672161  .00000568  00000+0  31472-3 0  9993",
        "tle_line2": "2 29958  98.6679  12.0523 0053929 300.5662  59.0197 14.14471242976107"
      },
      "geometry": {
        "type": "Point",
        "coordinates": [
          17.9128548896672,
          -30.28562827850213
        ]
      }
    },
    {
      "type": "Feature",
      "properties": {
        "norad_id": 29959,
        "name": "FENGYUN 1C DEB",
        "group": "fengyun-1c-debris",
        "lat": -58.70765386029893,
        "lon": 43.89726123764608,
        "alt_km": 850.2606395770845,
        "timestamp": "2025-12-24T18:55:56.341069+00:00",
        "meta_object_name": "FENGYUN 1C DEB",
        "meta_object_id": "1999-025KH",
        "meta_epoch": "2025-12-24T00:34:05.130336",
        "meta_mean_motion": 14.06020463,
        "meta_eccentricity": 0.00414216,
        "meta_inclination": 98.807,
        "meta_ra_of_asc_node": 28.3763,
        "meta_arg_of_pericenter": 295.582,
        "meta_mean_anomaly": 93.6488,
        "meta_ephemeris_type": 0,
        "meta_classification_type": "U",
        "meta_norad_cat_id": 29959,
        "meta_element_set_no": 999,
        "meta_rev_at_epoch": 97099,
        "meta_bstar": 0.00025468944,
        "meta_mean_motion_dot": 3.78e-06,
        "meta_mean_motion_ddot": 0,
        "tle_line1": "1 29959U 99025KH  25358.02367049  .00000378  00000+0  25469-3 0  9999",
        "tle_line2": "2 29959  98.8070  28.3763 0041421 295.5820  93.6488 14.06020463970998"
      },
      "geometry": {
        "type": "Point",
        "coordinates": [
          43.89726123764608,
          -58.70765386029893
        ]
      }
    },
    {
      "type": "Feature",
      "properties": {
        "norad_id": 29960,
        "name": "FENGYUN 1C DEB",
        "group": "fengyun-1c-debris",
        "lat": 72.75427360341715,
        "lon": -166.79116415003585,
        "alt_km": 884.8347263138758,
        "timestamp": "2025-12-24T18:55:56.341079+00:00",
        "meta_object_name": "FENGYUN 1C DEB",
        "meta_object_id": "1999-025KJ",
        "meta_epoch": "2025-12-23T22:20:53.564064",
        "meta_mean_motion": 14.16422253,
        "meta_eccentricity": 0.0090788,
        "meta_inclination": 98.6158,
        "meta_ra_of_asc_node": 343.1428,
        "meta_arg_of_pericenter": 253.8013,
        "meta_mean_anomaly": 160.8374,
        "meta_ephemeris_type": 0,
        "meta_classification_type": "U",
        "meta_norad_cat_id": 29960,
        "meta_element_set_no": 999,
        "meta_rev_at_epoch": 97613,
        "meta_bstar": 0.00038827,
        "meta_mean_motion_dot": 7.6e-06,
        "meta_mean_motion_ddot": 0,
        "tle_line1": "1 29960U 99025KJ  25357.93117551  .00000760  00000+0  38827-3 0  9998",
        "tle_line2": "2 29960  98.6158 343.1428 0090788 253.8013 160.8374 14.16422253976139"
      },
      "geometry": {
        "type": "Point",
        "coordinates": [
          -166.79116415003585,
          72.75427360341715
        ]
      }
    }
  ]
}